ORBCOMM FM37 [-]        
1 33064U 08031E   24004.35720097  .00001875  00000+0  30122-3 0  9992
2 33064  48.4424 334.0621 0006284 271.7754 244.4982 14.75664687835694
ORBCOMM FM40 [-]        
1 33065U 08031F   24004.32473389  .00002324  00000+0  35666-3 0  9997
2 33065  48.4445 324.7394 0007489 279.0965 235.1849 14.76821840835713
VESSELSAT 1 [-]         
1 37840U 11058C   24004.50169301  .00000387  00000+0  66927-4 0  9993
2 37840  19.9635  58.3448 0013859 120.0071 240.1709 14.11099415631396
ORBCOMM FM109 [+]       
1 40086U 14040A   24004.31575453  .00000891  00000+0  23717-3 0  9990
2 40086  47.0054 354.8797 0001873   6.9970 353.0940 14.56223823503786
ORBCOMM FM107 [+]       
1 40087U 14040B   24004.89878006  .00000849  00000+0  22781-3 0  9997
2 40087  47.0073 353.0800 0001968 331.9320  28.1458 14.56218969503946
ORBCOMM FM106 [-]       
1 40088U 14040C   24004.69263558  .00000905  00000+0  19472-3 0  9992
2 40088  47.0597 216.4741 0017859 132.6895 227.5502 14.66416278505685
ORBCOMM FM111 [-]       
1 40089U 14040D   24004.48411340  .00002656  00000+0  36495-3 0  9993
2 40089  47.0041 133.2705 0034049 188.6265 171.4048 14.80712258511589
ORBCOMM FM104 [-]       
1 40090U 14040E   24004.46858860  .00000705  00000+0  20149-3 0  9997
2 40090  47.0073  22.6323 0018106 305.3985  54.5207 14.54748325503445
